[{"OBJECT_NAME":"QIANFAN-91","OBJECT_ID":"2025-233A","EPOCH":"2026-03-09T21:20:21.994944","MEAN_MOTION":13.51004751,"ECCENTRICITY":0.00020093,"INCLINATION":88.9937,"RA_OF_ASC_NODE":53.2267,"ARG_OF_PERICENTER":92.0991,"MEAN_ANOMALY":268.0391,"EPHEMERIS_TYPE":0,"CLASSIFICATION_TYPE":"U","NORAD_CAT_ID":66033,"ELEMENT_SET_NO":999,"REV_AT_EPOCH":1977,"BSTAR":4.1026341e-5,"MEAN_MOTION_DOT":3.9e-7,"MEAN_MOTION_DDOT":0},{"OBJECT_NAME":"DELTA 1 DEB","OBJECT_ID":"1975-052FB","EPOCH":"2026-03-09T09:39:47.388384","MEAN_MOTION":13.50210642,"ECCENTRICITY":0.00270081,"INCLINATION":99.7192,"RA_OF_ASC_NODE":230.9984,"ARG_OF_PERICENTER":129.7987,"MEAN_ANOMALY":285.6871,"EPHEMERIS_TYPE":0,"CLASSIFICATION_TYPE":"U","NORAD_CAT_ID":21467,"ELEMENT_SET_NO":999,"REV_AT_EPOCH":71463,"BSTAR":0.00041729358,"MEAN_MOTION_DOT":2.24e-6,"MEAN_MOTION_DDOT":0}]
